     3.04           N: GNSS NAV DATA    M: MIXED            RINEX VERSION / TYPE
ssrcrin-15.6.1x                         20250101 061500 UTC PGM / RUN BY / DATE 
    18                                                      LEAP SECONDS        
                                                            END OF HEADER       
S36 2025 01 01 06 15 12 0.000000000000E+00 0.000000000000E+00 2.817140000000E+05
     4.200368800000E+04 0.000000000000E+00 0.000000000000E+00 6.300000000000E+01
     3.674846960000E+03 0.000000000000E+00 0.000000000000E+00 3.276700000000E+04
     0.000000000000E+00 0.000000000000E+00 0.000000000000E+00 4.400000000000E+01
E09 2025 01 01 06 00 00-7.213908247650E-04-1.423927642463E-11 0.000000000000E+00
     8.700000000000E+01-1.707187500000E+02 2.632609658759E-09 2.282531096513E+00
    -8.018687367439E-06 1.966684358194E-04 1.285225152969E-05 5.440619058609E+03
     2.808000000000E+05-4.097819328308E-08 3.142321789516E-01 2.980232238770E-08
     9.694464137915E-01 6.553125000000E+01 3.142567647528E-01-5.133070955866E-09
     2.532248335450E-10 5.170000000000E+02 2.347000000000E+03
     3.120000000000E+00 0.000000000000E+00-2.328306436539E-09-1.396983861923E-09
     2.817250000000E+05
S23 2025 01 01 06 14 40 0.000000000000E+00 0.000000000000E+00 2.817580000000E+05
     3.866796400000E+04 0.000000000000E+00 0.000000000000E+00 6.300000000000E+01
     1.681330800000E+04 0.000000000000E+00 0.000000000000E+00 3.276700000000E+04
     0.000000000000E+00 0.000000000000E+00 0.000000000000E+00 1.650000000000E+02
S23 2025 01 01 06 16 48 0.000000000000E+00 0.000000000000E+00 2.818220000000E+05
     3.866796400000E+04 0.000000000000E+00 0.000000000000E+00 6.300000000000E+01
     1.681330800000E+04 0.000000000000E+00 0.000000000000E+00 3.276700000000E+04
     0.000000000000E+00 0.000000000000E+00 0.000000000000E+00 1.660000000000E+02
S36 2025 01 01 06 17 36 0.000000000000E+00 0.000000000000E+00 2.818660000000E+05
     4.200368800000E+04 0.000000000000E+00 0.000000000000E+00 6.300000000000E+01
     3.674846960000E+03 0.000000000000E+00 0.000000000000E+00 3.276700000000E+04
     0.000000000000E+00 0.000000000000E+00 0.000000000000E+00 4.500000000000E+01
S23 2025 01 01 06 18 56 0.000000000000E+00 0.000000000000E+00 2.819490000000E+05
     3.866796400000E+04 0.000000000000E+00 0.000000000000E+00 6.300000000000E+01
     1.681330800000E+04 0.000000000000E+00 0.000000000000E+00 3.276700000000E+04
     0.000000000000E+00 0.000000000000E+00 0.000000000000E+00 1.670000000000E+02
S36 2025 01 01 06 20 16 0.000000000000E+00 0.000000000000E+00 2.820210000000E+05
     4.200368800000E+04 0.000000000000E+00 0.000000000000E+00 6.300000000000E+01
     3.674846960000E+03 0.000000000000E+00 0.000000000000E+00 3.276700000000E+04
     0.000000000000E+00 0.000000000000E+00 0.000000000000E+00 4.600000000000E+01
E05 2025 01 01 06 10 00 4.815219959710E-03 3.296918293927E-12 0.000000000000E+00
     8.800000000000E+01-1.753125000000E+02 2.655824911482E-09-1.590990897077E+00
    -8.104369044304E-06 2.352916635573E-05 1.192465424538E-05 5.440621282578E+03
     2.814000000000E+05-2.421438694000E-08 3.133431592460E-01 3.539025783539E-08
     9.635939471100E-01 8.546875000000E+01-2.821112727492E+00-5.173786937564E-09
     2.975123925853E-10 5.170000000000E+02 2.347000000000E+03
     3.120000000000E+00 0.000000000000E+00-1.164153218269E-09 0.000000000000E+00
     2.820650000000E+05
E03 2025 01 01 06 10 00-1.636830274947E-04-2.515321284591E-12 0.000000000000E+00
     8.800000000000E+01-1.544687500000E+02 2.831903674441E-09 1.582797808282E-01
    -7.100403308868E-06 2.402554964647E-04 1.128390431404E-05 5.440615716934E+03
     2.814000000000E+05 4.470348358154E-08 3.133373909600E-01 4.842877388000E-08
     9.635797846000E-01 9.928125000000E+01 9.324798066468E-01-5.238075329720E-09
     2.828689254833E-10 5.170000000000E+02 2.347000000000E+03
     3.120000000000E+00 0.000000000000E+00 6.984919309616E-10 1.629814505577E-09
     2.820650000000E+05
E24 2025 01 01 06 10 00-1.187284709886E-03-2.135891463695E-11 0.000000000000E+00
     8.800000000000E+01-1.428125000000E+01 3.266921794692E-09-3.474654469534E-01
    -5.774199962616E-07 7.853674469516E-04 6.834045052528E-06 5.440610635757E+03
     2.814000000000E+05-3.911554813385E-08 2.416418545555E+00 5.215406417847E-08
     9.620727990395E-01 1.940937500000E+02 9.081427263498E-01-5.403082202918E-09
    -5.975248893100E-10 5.170000000000E+02 2.347000000000E+03
     3.120000000000E+00 0.000000000000E+00-6.286427378654E-09-6.519258022308E-09
     2.820650000000E+05
E15 2025 01 01 06 10 00-1.484109088778E-04-2.287947609148E-12 0.000000000000E+00
     8.800000000000E+01 1.633125000000E+02 2.741185609955E-09-2.702078257914E+00
     7.754191756248E-06 4.391018301249E-04 7.618218660355E-07 5.440605960846E+03
     2.814000000000E+05-4.656612873077E-08-1.775809152939E+00 2.048909664154E-08
     9.996267282942E-01 3.415937500000E+02-1.176608743506E+00-5.638449149754E-09
     3.668009930194E-10 5.170000000000E+02 2.347000000000E+03
     3.120000000000E+00 0.000000000000E+00 2.561137080193E-09 3.725290298462E-09
     2.820650000000E+05
E13 2025 01 01 06 10 00-2.859544474632E-05-3.552713678801E-13 0.000000000000E+00
     8.800000000000E+01 1.477500000000E+02 2.634752605165E-09 2.714359475670E+00
     6.932765245438E-06 3.827573964372E-04 1.266598701477E-07 5.440613475800E+03
     2.814000000000E+05-2.793967723846E-08-1.775734001375E+00 7.636845111847E-08
     9.996702691250E-01 3.529375000000E+02-1.108546829505E+00-5.667021768489E-09
     3.593006806013E-10 5.170000000000E+02 2.347000000000E+03
     3.120000000000E+00 0.000000000000E+00 2.095475792885E-09 3.026798367500E-09
     2.820650000000E+05
S23 2025 01 01 06 21 04 0.000000000000E+00 0.000000000000E+00 2.820760000000E+05
     3.866796400000E+04 0.000000000000E+00 0.000000000000E+00 6.300000000000E+01
     1.681330800000E+04 0.000000000000E+00 0.000000000000E+00 3.276700000000E+04
     0.000000000000E+00 0.000000000000E+00 0.000000000000E+00 1.680000000000E+02
E08 2025 01 01 06 10 00-3.932437975891E-04-6.153300091682E-12 0.000000000000E+00
     8.800000000000E+01-1.476875000000E+02 2.708684256143E-09-3.270309507918E-01
    -6.817281246185E-06 1.752491807565E-04 1.148693263531E-05 5.440621715546E+03
     2.814000000000E+05 2.793967723846E-08 3.141857122846E-01-2.793967723846E-08
     9.694184384091E-01 9.496875000000E+01 6.429134447027E-01-5.203431029503E-09
     2.357241045694E-10 5.170000000000E+02 2.347000000000E+03
     3.120000000000E+00 0.000000000000E+00-5.820766091347E-09-5.820766091347E-09
     2.820840000000E+05
G14 2025 01 01 08 00 00 5.715158767998E-04 7.389644451905E-12 0.000000000000E+00
     7.900000000000E+01-1.375000000000E+01 5.052710465672E-09-2.813641540492E+00
    -6.966292858124E-07 5.133921047673E-03 6.653368473053E-06 5.153692008972E+03
     2.880000000000E+05-2.048909664154E-08 2.347638648916E+00-3.911554813385E-08
     9.441817746751E-01 2.431250000000E+02-2.864378781308E+00-8.060692903071E-09
    -4.185888644778E-10 1.000000000000E+00 2.347000000000E+03 0.000000000000E+00
     2.000000000000E+00 0.000000000000E+00-7.916241884232E-09 3.350000000000E+02
     2.821380000000E+05 4.000000000000E+00
E05 2025 01 01 06 10 00 4.815218679141E-03 3.296918293927E-12 0.000000000000E+00
     8.800000000000E+01-1.753125000000E+02 2.655824911482E-09-1.590990897077E+00
    -8.104369044304E-06 2.352916635573E-05 1.192465424538E-05 5.440621282578E+03
     2.814000000000E+05-2.421438694000E-08 3.133431592460E-01 3.539025783539E-08
     9.635939471100E-01 8.546875000000E+01-2.821112727492E+00-5.173786937564E-09
     2.975123925853E-10 2.580000000000E+02 2.347000000000E+03
     3.120000000000E+00 0.000000000000E+00-1.164153218269E-09 0.000000000000E+00
     2.821400000000E+05
E03 2025 01 01 06 10 00-1.636841916479E-04-2.515321284591E-12 0.000000000000E+00
     8.800000000000E+01-1.544687500000E+02 2.831903674441E-09 1.582797808282E-01
    -7.100403308868E-06 2.402554964647E-04 1.128390431404E-05 5.440615716934E+03
     2.814000000000E+05 4.470348358154E-08 3.133373909600E-01 4.842877388000E-08
     9.635797846000E-01 9.928125000000E+01 9.324798066468E-01-5.238075329720E-09
     2.828689254833E-10 2.580000000000E+02 2.347000000000E+03
     3.120000000000E+00 0.000000000000E+00 6.984919309616E-10 0.000000000000E+00
     2.821400000000E+05
E24 2025 01 01 06 10 00-1.187284709886E-03-2.135891463695E-11 0.000000000000E+00
     8.800000000000E+01-1.428125000000E+01 3.266921794692E-09-3.474654469534E-01
    -5.774199962616E-07 7.853674469516E-04 6.834045052528E-06 5.440610635757E+03
     2.814000000000E+05-3.911554813385E-08 2.416418545555E+00 5.215406417847E-08
     9.620727990395E-01 1.940937500000E+02 9.081427263498E-01-5.403082202918E-09
    -5.975248893100E-10 2.580000000000E+02 2.347000000000E+03
     3.120000000000E+00 0.000000000000E+00-6.286427378654E-09 0.000000000000E+00
     2.821400000000E+05
E15 2025 01 01 06 10 00-1.484123058617E-04-2.287947609148E-12 0.000000000000E+00
     8.800000000000E+01 1.633125000000E+02 2.741185609955E-09-2.702078257914E+00
     7.754191756248E-06 4.391018301249E-04 7.618218660355E-07 5.440605960846E+03
     2.814000000000E+05-4.656612873077E-08-1.775809152939E+00 2.048909664154E-08
     9.996267282942E-01 3.415937500000E+02-1.176608743506E+00-5.638449149754E-09
     3.668009930194E-10 2.580000000000E+02 2.347000000000E+03
     3.120000000000E+00 0.000000000000E+00 2.561137080193E-09 0.000000000000E+00
     2.821400000000E+05
